[Satellite]
VERSION=1.1
NAME=CZ-6A DEB
NICKNAME=CZ-6A DEB
TLE1=1 54562U 22151LN  22342.24311281  .00000991  00000+0  42276-3 0  9990
TLE2=2 54562  98.7656 347.1505 0068034 120.7505 240.0397 14.26069294  3507
STATUS=0
